{
  "type": "FeatureCollection",
  "features": [
    {
      "type": "Feature",
      "properties": {
        "norad_id": 41026,
        "name": "YAOGAN-28",
        "group": "resource",
        "lat": 80.61930803930787,
        "lon": 5.8180088613229985,
        "alt_km": 476.16346695473203,
        "timestamp": "2025-12-23T14:49:08.986841+00:00",
        "meta_object_name": "YAOGAN-28",
        "meta_object_id": "2015-064A",
        "meta_epoch": "2025-12-23T08:05:58.428384",
        "meta_mean_motion": 15.24514125,
        "meta_eccentricity": 0.00126555,
        "meta_inclination": 97.2816,
        "meta_ra_of_asc_node": 134.8319,
        "meta_arg_of_pericenter": 92.4611,
        "meta_mean_anomaly": 267.8076,
        "meta_ephemeris_type": 0,
        "meta_classification_type": "U",
        "meta_norad_cat_id": 41026,
        "meta_element_set_no": 999,
        "meta_rev_at_epoch": 56386,
        "meta_bstar": 0.0003486185,
        "meta_mean_motion_dot": 8.525e-05,
        "meta_mean_motion_ddot": 0,
        "tle_line1": "1 41026U 15064A   25357.33748181  .00008525  00000+0  34862-3 0  9991",
        "tle_line2": "2 41026  97.2816 134.8319 0012655  92.4611 267.8076 15.24514125563863"
      },
      "geometry": {
        "type": "Point",
        "coordinates": [
          5.8180088613229985,
          80.61930803930787
        ]
      }
    },
    {
      "type": "Feature",
      "properties": {
        "norad_id": 41038,
        "name": "YAOGAN-29",
        "group": "resource",
        "lat": 8.066330797457383,
        "lon": 19.67845257201884,
        "alt_km": 622.575723853819,
        "timestamp": "2025-12-23T14:49:08.986852+00:00",
        "meta_object_name": "YAOGAN-29",
        "meta_object_id": "2015-069A",
        "meta_epoch": "2025-12-23T06:41:07.084608",
        "meta_mean_motion": 14.82892066,
        "meta_eccentricity": 6.821e-05,
        "meta_inclination": 98.0204,
        "meta_ra_of_asc_node": 20.4835,
        "meta_arg_of_pericenter": 172.2067,
        "meta_mean_anomaly": 187.9157,
        "meta_ephemeris_type": 0,
        "meta_classification_type": "U",
        "meta_norad_cat_id": 41038,
        "meta_element_set_no": 999,
        "meta_rev_at_epoch": 54455,
        "meta_bstar": 4.124279e-05,
        "meta_mean_motion_dot": 2.8e-06,
        "meta_mean_motion_ddot": 0,
        "tle_line1": "1 41038U 15069A   25357.27855422  .00000280  00000+0  41243-4 0  9991",
        "tle_line2": "2 41038  98.0204  20.4835 0000682 172.2067 187.9157 14.82892066544551"
      },
      "geometry": {
        "type": "Point",
        "coordinates": [
          19.67845257201884,
          8.066330797457383
        ]
      }
    },
    {
      "type": "Feature",
      "properties": {
        "norad_id": 41167,
        "name": "KENT RIDGE 1",
        "group": "resource",
        "lat": 5.488719303702552,
        "lon": -70.63490442837181,
        "alt_km": 500.6259265908893,
        "timestamp": "2025-12-23T14:49:08.986864+00:00",
        "meta_object_name": "KENT RIDGE 1",
        "meta_object_id": "2015-077B",
        "meta_epoch": "2025-12-22T17:40:34.836384",
        "meta_mean_motion": 15.21707626,
        "meta_eccentricity": 0.00085399,
        "meta_inclination": 14.9787,
        "meta_ra_of_asc_node": 136.9576,
        "meta_arg_of_pericenter": 272.009,
        "meta_mean_anomaly": 87.9254,
        "meta_ephemeris_type": 0,
        "meta_classification_type": "U",
        "meta_norad_cat_id": 41167,
        "meta_element_set_no": 999,
        "meta_rev_at_epoch": 55416,
        "meta_bstar": 0.00015311914,
        "meta_mean_motion_dot": 4.327e-05,
        "meta_mean_motion_ddot": 0,
        "tle_line1": "1 41167U 15077B   25356.73651431  .00004327  00000+0  15312-3 0  9990",
        "tle_line2": "2 41167  14.9787 136.9576 0008539 272.0090  87.9254 15.21707626554162"
      },
      "geometry": {
        "type": "Point",
        "coordinates": [
          -70.63490442837181,
          5.488719303702552
        ]
      }
    },
    {
      "type": "Feature",
      "properties": {
        "norad_id": 41194,
        "name": "GAOFEN-4",
        "group": "resource",
        "lat": -0.053840617148950484,
        "lon": 60.37663364494963,
        "alt_km": 35791.44783292919,
        "timestamp": "2025-12-23T14:49:08.986879+00:00",
        "meta_object_name": "GAOFEN-4",
        "meta_object_id": "2015-083A",
        "meta_epoch": "2025-12-19T15:27:26.627616",
        "meta_mean_motion": 1.00273138,
        "meta_eccentricity": 0.0002945,
        "meta_inclination": 0.1878,
        "meta_ra_of_asc_node": 81.7841,
        "meta_arg_of_pericenter": 93.4275,
        "meta_mean_anomaly": 250.8523,
        "meta_ephemeris_type": 0,
        "meta_classification_type": "U",
        "meta_norad_cat_id": 41194,
        "meta_element_set_no": 999,
        "meta_rev_at_epoch": 3672,
        "meta_bstar": 0,
        "meta_mean_motion_dot": -3.11e-06,
        "meta_mean_motion_ddot": 0,
        "tle_line1": "1 41194U 15083A   25353.64405819 -.00000311  00000+0  00000+0 0  9995",
        "tle_line2": "2 41194   0.1878  81.7841 0002945  93.4275 250.8523  1.00273138 36722"
      },
      "geometry": {
        "type": "Point",
        "coordinates": [
          60.37663364494963,
          -0.053840617148950484
        ]
      }
    },
    {
      "type": "Feature",
      "properties": {
        "norad_id": 41240,
        "name": "JASON-3",
        "group": "resource",
        "lat": -27.453220722959042,
        "lon": 121.59895408280109,
        "alt_km": 1312.7954106064553,
        "timestamp": "2025-12-23T14:49:08.986892+00:00",
        "meta_object_name": "JASON-3",
        "meta_object_id": "2016-002A",
        "meta_epoch": "2025-12-23T07:31:11.057952",
        "meta_mean_motion": 12.87626977,
        "meta_eccentricity": 0.00072634,
        "meta_inclination": 66.0402,
        "meta_ra_of_asc_node": 135.5943,
        "meta_arg_of_pericenter": 271.3998,
        "meta_mean_anomaly": 88.6189,
        "meta_ephemeris_type": 0,
        "meta_classification_type": "U",
        "meta_norad_cat_id": 41240,
        "meta_element_set_no": 999,
        "meta_rev_at_epoch": 46460,
        "meta_bstar": 7.7778944e-05,
        "meta_mean_motion_dot": -4.3e-07,
        "meta_mean_motion_ddot": 0,
        "tle_line1": "1 41240U 16002A   25357.31332243 -.00000043  00000+0  77779-4 0  9991",
        "tle_line2": "2 41240  66.0402 135.5943 0007263 271.3998  88.6189 12.87626977464603"
      },
      "geometry": {
        "type": "Point",
        "coordinates": [
          121.59895408280109,
          -27.453220722959042
        ]
      }
    },
    {
      "type": "Feature",
      "properties": {
        "norad_id": 41335,
        "name": "SENTINEL-3A",
        "group": "resource",
        "lat": 31.51115721294634,
        "lon": 57.13592013233558,
        "alt_km": 800.5483089372565,
        "timestamp": "2025-12-23T14:49:08.986904+00:00",
        "meta_object_name": "SENTINEL-3A",
        "meta_object_id": "2016-011A",
        "meta_epoch": "2025-12-23T04:34:16.855104",
        "meta_mean_motion": 14.26734614,
        "meta_eccentricity": 8.946e-05,
        "meta_inclination": 98.6299,
        "meta_ra_of_asc_node": 62.0572,
        "meta_arg_of_pericenter": 95.6505,
        "meta_mean_anomaly": 264.4778,
        "meta_ephemeris_type": 0,
        "meta_classification_type": "U",
        "meta_norad_cat_id": 41335,
        "meta_element_set_no": 999,
        "meta_rev_at_epoch": 51296,
        "meta_bstar": 7.6786741e-05,
        "meta_mean_motion_dot": 1.42e-06,
        "meta_mean_motion_ddot": 0,
        "tle_line1": "1 41335U 16011A   25357.19047286  .00000142  00000+0  76787-4 0  9999",
        "tle_line2": "2 41335  98.6299  62.0572 0000894  95.6505 264.4778 14.26734614512963"
      },
      "geometry": {
        "type": "Point",
        "coordinates": [
          57.13592013233558,
          31.51115721294634
        ]
      }
    },
    {
      "type": "Feature",
      "properties": {
        "norad_id": 41556,
        "name": "ZIYUAN 3-02 (ZY 3-02)",
        "group": "resource",
        "lat": -58.77593373039523,
        "lon": -120.78263445217738,
        "alt_km": 502.92220701852693,
        "timestamp": "2025-12-23T14:49:08.986919+00:00",
        "meta_object_name": "ZIYUAN 3-02 (ZY 3-02)",
        "meta_object_id": "2016-033A",
        "meta_epoch": "2025-12-23T07:27:16.508736",
        "meta_mean_motion": 15.2119768,
        "meta_eccentricity": 0.00112909,
        "meta_inclination": 97.4029,
        "meta_ra_of_asc_node": 71.301,
        "meta_arg_of_pericenter": 206.6081,
        "meta_mean_anomaly": 153.4577,
        "meta_ephemeris_type": 0,
        "meta_classification_type": "U",
        "meta_norad_cat_id": 41556,
        "meta_element_set_no": 999,
        "meta_rev_at_epoch": 53124,
        "meta_bstar": 0.00034374839,
        "meta_mean_motion_dot": 7.612e-05,
        "meta_mean_motion_ddot": 0,
        "tle_line1": "1 41556U 16033A   25357.31060774  .00007612  00000+0  34375-3 0  9994",
        "tle_line2": "2 41556  97.4029  71.3010 0011290 206.6081 153.4577 15.21197680531249"
      },
      "geometry": {
        "type": "Point",
        "coordinates": [
          -120.78263445217738,
          -58.77593373039523
        ]
      }
    }
  ]
}